IRIDIUM 144             
1 43249U 18030A   25276.62198414 -.00000243  00000+0 -93818-4 0  9994
2 43249  86.3987  37.6400 0002002  89.8722 270.2703 14.34216504393360
IRIDIUM 149             
1 43250U 18030B   25276.41901993  .00000241  00000+0  78874-4 0  9998
2 43250  86.3986  37.6942 0002171  92.8312 267.3132 14.34215849393351
IRIDIUM 157             
1 43251U 18030C   25276.57758276  .00000493  00000+0  16885-3 0  9992
2 43251  86.3986  37.6755 0001981  99.1725 260.9695 14.34215128393353
IRIDIUM 140             
1 43252U 18030D   25276.59661285  .00000420  00000+0  14277-3 0  9991
2 43252  86.3980  37.6809 0002299  89.8080 270.3380 14.34217384393410
IRIDIUM 145             
1 43253U 18030E   25276.58392583  .00000610  00000+0  21078-3 0  9991
2 43253  86.3982  37.6606 0002462  75.5141 284.6328 14.34220021393344
IRIDIUM 146             
1 43254U 18030F   25276.63466918  .00000186  00000+0  59393-4 0  9992
2 43254  86.3987  37.6508 0002064  85.6126 274.5306 14.34215477393369
IRIDIUM 148             
1 43255U 18030G   25276.60295198  .00000343  00000+0  11554-3 0  9991
2 43255  86.3983  37.7024 0002011  94.0021 266.1405 14.34213604393390
IRIDIUM 142             
1 43256U 18030H   25276.43170021  .00000037  00000+0  60583-5 0  9998
2 43256  86.3978  37.6735 0002197  81.3312 278.8133 14.34219891393336
